{
    "links": {
        "self": "http://www.neowsapp.com/rest/v1/neo/3799656?api_key=iIulBulltgU6a56xZRHN4H3l9WmuAYTsLGpBGhQ2"
    },
    "id": "3799656",
    "neo_reference_id": "3799656",
    "name": "(2018 BG11)",
    "designation": "2018 BG11",
    "nasa_jpl_url": "http://ssd.jpl.nasa.gov/sbdb.cgi?sstr=3799656",
    "absolute_magnitude_h": 27.319,
    "estimated_diameter": {
        "kilometers": {
            "estimated_diameter_min": 0.0091359766,
            "estimated_diameter_max": 0.0204286646
        },
        "meters": {
            "estimated_diameter_min": 9.1359765593,
            "estimated_diameter_max": 20.4286646273
        },
        "miles": {
            "estimated_diameter_min": 0.0056768309,
            "estimated_diameter_max": 0.0126937798
        },
        "feet": {
            "estimated_diameter_min": 29.9736773347,
            "estimated_diameter_max": 67.023180056
        }
    },
    "is_potentially_hazardous_asteroid": false,
    "close_approach_data": [
        {
            "close_approach_date": "2017-12-28",
            "close_approach_date_full": "2017-Dec-28 18:11",
            "epoch_date_close_approach": 1514484660000,
            "relative_velocity": {
                "kilometers_per_second": "4.3678284224",
                "kilometers_per_hour": "15724.182320792",
                "miles_per_hour": "9770.395398161"
            },
            "miss_distance": {
                "astronomical": "0.0220983174",
                "lunar": "8.5962454686",
                "kilometers": "3305861.213623938",
                "miles": "2054166.9051608244"
            },
            "orbiting_body": "Earth"
        }
    ],
    "orbital_data": {
        "orbit_id": "1",
        "orbit_determination_date": "2018-02-17 06:20:29",
        "first_observation_date": "2018-01-16",
        "last_observation_date": "2018-01-17",
        "data_arc_in_days": 1,
        "observations_used": 6,
        "orbit_uncertainty": "9",
        "minimum_orbit_intersection": ".022067",
        "jupiter_tisserand_invariant": "4.684",
        "epoch_osculation": "2458135.5",
        "eccentricity": ".2891424618193808",
        "semi_major_axis": "1.410007522317758",
        "inclination": "4.484272996194249",
        "ascending_node_longitude": "103.2620979035612",
        "orbital_period": "611.5480296726874",
        "perihelion_distance": "1.002314476130956",
        "perihelion_argument": "346.9726481720531",
        "aphelion_distance": "1.81770056850456",
        "perihelion_time": "2458110.194845395045",
        "mean_anomaly": "14.89638624567162",
        "mean_motion": ".5886700349483247",
        "equinox": "J2000",
        "orbit_class": {
            "orbit_class_type": "APO",
            "orbit_class_description": "Near-Earth asteroid orbits which cross the Earth’s orbit similar to that of 1862 Apollo",
            "orbit_class_range": "a (semi-major axis) > 1.0 AU; q (perihelion) < 1.017 AU"
        }
    },
    "is_sentry_object": false
}